[
  {
    "number": 1,
    "name_en": "Cao Shen",
    "name_ch": "曹參",
    "domain_ch": "平陽",
    "domain_en": "Pingyang",
    "type": "domain",
    "certainty": "Y",
    "latitude": 36.06,
    "longitude": 111.43,
    "from": 201,
    "to": 189
  },
  {
    "number": 1,
    "name_en": "Cao Shen",
    "name_ch": "曹參",
    "domain_ch": "長陵",
    "domain_en": "Changling",
    "type": "tomb",
    "certainty": "N",
    "latitude": 34.442,
    "longitude": 108.909,
    "from": 201,
    "to": 189
  },
  {
    "number": 1,
    "name_en": "Cao Shen",
    "name_ch": "曹參",
    "domain_ch": "沛",
    "domain_en": "Pei",
    "type": "origin",
    "certainty": "Y",
    "latitude": 34.731,
    "longitude": 116.94,
    "from": 201,
    "to": 189
  },
  {
    "number": 2,
    "name_en": "Cao Zhu",
    "name_ch": "曹窋",
    "domain_ch": "平陽",
    "domain_en": "Pingyang",
    "type": "domain",
    "certainty": "Y",
    "latitude": 36.06,
    "longitude": 111.43,
    "from": 189,
    "to": 160
  },
  {
    "number": 3,
    "name_en": "Cao Qi",
    "name_ch": "曹奇",
    "domain_ch": "平陽",
    "domain_en": "Pingyang",
    "type": "domain",
    "certainty": "Y",
    "latitude": 36.06,
    "longitude": 111.43,
    "from": 160,
    "to": 153
  },
  {
    "number": 4,
    "name_en": "Cao Shi",
    "name_ch": "曹時",
    "domain_ch": "平陽",
    "domain_en": "Pingyang",
    "type": "domain",
    "certainty": "Y",
    "latitude": 36.06,
    "longitude": 111.43,
    "from": 153,
    "to": 130
  },
  {
    "number": 5,
    "name_en": "Cao Xiang",
    "name_ch": "曹襄",
    "domain_ch": "平陽",
    "domain_en": "Pingyang",
    "type": "domain",
    "certainty": "Y",
    "latitude": 36.06,
    "longitude": 111.43,
    "from": 130,
    "to": 115
  },
  {
    "number": 6,
    "name_en": "Cao Zong",
    "name_ch": "曹宗",
    "domain_ch": "平陽",
    "domain_en": "Pingyang",
    "type": "domain",
    "certainty": "Y",
    "latitude": 36.06,
    "longitude": 111.43,
    "from": 115,
    "to": 91
  },
  {
    "number": 11,
    "name_en": "Jin Xi",
    "name_ch": "靳歙",
    "domain_ch": "信武",
    "domain_en": "Xinwu",
    "type": "domain",
    "certainty": "",
    "latitude": "",
    "longitude": "",
    "from": 201,
    "to": 192
  },
  {
    "number": 11,
    "name_en": "Jin Xi",
    "name_ch": "靳歙",
    "domain_ch": "宛朐",
    "domain_en": "Wanqu",
    "type": "origin",
    "certainty": "Y",
    "latitude": 35.106,
    "longitude": 115.239,
    "from": 201,
    "to": 192
  },
  {
    "number": 12,
    "name_en": "Jin Ting",
    "name_ch": "靳亭",
    "domain_ch": "信武",
    "domain_en": "Xinwu",
    "type": "domain",
    "certainty": "",
    "latitude": "",
    "longitude": "",
    "from": 182,
    "to": 161
  },
  {
    "number": 13,
    "name_en": "Xiahou Ying",
    "name_ch": "夏侯嬰",
    "domain_ch": "汝陰",
    "domain_en": "Ruyin",
    "type": "domain",
    "certainty": "Y",
    "latitude": 32.888,
    "longitude": 115.812,
    "from": 201,
    "to": 171
  },
  {
    "number": 13,
    "name_en": "Xiahou Ying",
    "name_ch": "夏侯嬰",
    "domain_ch": "",
    "domain_en": "",
    "type": "tomb",
    "certainty": "",
    "latitude": "",
    "longitude": "",
    "from": 201,
    "to": 171
  },
  {
    "number": 13,
    "name_en": "Xiahou Ying",
    "name_ch": "夏侯嬰",
    "domain_ch": "沛",
    "domain_en": "Pei",
    "type": "origin",
    "certainty": "Y",
    "latitude": 34.731,
    "longitude": 116.94,
    "from": 201,
    "to": 171
  },
  {
    "number": 14,
    "name_en": "Xiahou Zao",
    "name_ch": "夏侯竈",
    "domain_ch": "汝陰",
    "domain_en": "Ruyin",
    "type": "domain",
    "certainty": "Y",
    "latitude": 32.888,
    "longitude": 115.812,
    "from": 171,
    "to": 164
  },
  {
    "number": 14,
    "name_en": "Xiahou Zao",
    "name_ch": "夏侯竈",
    "domain_ch": "汝陰",
    "domain_en": "Ruyin",
    "type": "tomb",
    "certainty": "Y",
    "latitude": 32.846,
    "longitude": 115.773,
    "from": 171,
    "to": 164
  },
  {
    "number": 15,
    "name_en": "Xiahou Ci",
    "name_ch": "夏侯賜",
    "domain_ch": "汝陰",
    "domain_en": "Ruyin",
    "type": "domain",
    "certainty": "Y",
    "latitude": 32.888,
    "longitude": 115.812,
    "from": 164,
    "to": 133
  },
  {
    "number": 16,
    "name_en": "Xiahou Po",
    "name_ch": "夏侯頗",
    "domain_ch": "汝陰",
    "domain_en": "Ruyin",
    "type": "domain",
    "certainty": "Y",
    "latitude": 32.888,
    "longitude": 115.812,
    "from": 133,
    "to": 115
  },
  {
    "number": 17,
    "name_en": "Wang Xi",
    "name_ch": "王吸",
    "domain_ch": "清河",
    "domain_en": "Qinghe",
    "type": "domain",
    "certainty": "Y",
    "latitude": 36.866,
    "longitude": 115.788,
    "from": 201,
    "to": 178
  },
  {
    "number": 17,
    "name_en": "Wang Xi",
    "name_ch": "王吸",
    "domain_ch": "豐",
    "domain_en": "Feng",
    "type": "origin",
    "certainty": "Y",
    "latitude": 34.697,
    "longitude": 116.614,
    "from": 201,
    "to": 178
  },
  {
    "number": 18,
    "name_en": "Wang Jiang",
    "name_ch": "王疆",
    "domain_ch": "清河",
    "domain_en": "Qinghe",
    "type": "domain",
    "certainty": "Y",
    "latitude": 36.866,
    "longitude": 115.788,
    "from": 178,
    "to": 171
  },
  {
    "number": 19,
    "name_en": "Wang Kang",
    "name_ch": "王伉",
    "domain_ch": "清河",
    "domain_en": "Qinghe",
    "type": "domain",
    "certainty": "Y",
    "latitude": 36.866,
    "longitude": 115.788,
    "from": 171,
    "to": 152
  },
  {
    "number": 20,
    "name_en": "Wang Buhai",
    "name_ch": "王不害",
    "domain_ch": "清河",
    "domain_en": "Qinghe",
    "type": "domain",
    "certainty": "Y",
    "latitude": 36.866,
    "longitude": 115.788,
    "from": 152,
    "to": 133
  },
  {
    "number": 22,
    "name_en": "Fu Kuan",
    "name_ch": "傅寬",
    "domain_ch": "陽陵",
    "domain_en": "Yangling",
    "type": "domain",
    "certainty": "N",
    "latitude": 34.074,
    "longitude": 113.716,
    "from": 201,
    "to": 189
  },
  {
    "number": 23,
    "name_en": "Fu Qing",
    "name_ch": "傅清",
    "domain_ch": "陽陵",
    "domain_en": "Yangling",
    "type": "domain",
    "certainty": "Y",
    "latitude": 34.074,
    "longitude": 113.716,
    "from": 189,
    "to": 165
  },
  {
    "number": 24,
    "name_en": "Fu Ming",
    "name_ch": "傅明",
    "domain_ch": "陽陵",
    "domain_en": "Yangling",
    "type": "domain",
    "certainty": "Y",
    "latitude": 34.074,
    "longitude": 113.716,
    "from": 165,
    "to": 153
  },
  {
    "number": 25,
    "name_en": "Fu Yan",
    "name_ch": "傅偃",
    "domain_ch": "陽陵",
    "domain_en": "Yangling",
    "type": "domain",
    "certainty": "Y",
    "latitude": 34.074,
    "longitude": 113.716,
    "from": 153,
    "to": 122
  },
  {
    "number": 26,
    "name_en": "Shao Ou",
    "name_ch": "召歐",
    "domain_ch": "廣",
    "domain_en": "Guang",
    "type": "domain",
    "certainty": "Y",
    "latitude": 36.674,
    "longitude": 118.448,
    "from": 201,
    "to": 178
  },
  {
    "number": 27,
    "name_en": "Shao Sheng",
    "name_ch": "召勝",
    "domain_ch": "廣",
    "domain_en": "Guang",
    "type": "domain",
    "certainty": "Y",
    "latitude": 36.674,
    "longitude": 118.448,
    "from": 178,
    "to": 169
  },
  {
    "number": 28,
    "name_en": "Shao Jia",
    "name_ch": "召嘉",
    "domain_ch": "廣",
    "domain_en": "Guang",
    "type": "domain",
    "certainty": "Y",
    "latitude": 36.674,
    "longitude": 118.448,
    "from": 169,
    "to": 156
  },
  {
    "number": 29,
    "name_en": "Xue Ou",
    "name_ch": "薛歐",
    "domain_ch": "廣平",
    "domain_en": "Guangping",
    "type": "domain",
    "certainty": "N",
    "latitude": 36.951,
    "longitude": 115.022,
    "from": 201,
    "to": 187
  },
  {
    "number": 29,
    "name_en": "Xue Ou",
    "name_ch": "薛歐",
    "domain_ch": "豐",
    "domain_en": "Feng",
    "type": "origin",
    "certainty": "Y",
    "latitude": 34.697,
    "longitude": 116.614,
    "from": 201,
    "to": 187
  },
  {
    "number": 30,
    "name_en": "Xue Shan",
    "name_ch": "薛山",
    "domain_ch": "廣平",
    "domain_en": "Guangping",
    "type": "domain",
    "certainty": "N",
    "latitude": 36.951,
    "longitude": 115.022,
    "from": 187,
    "to": 161
  },
  {
    "number": 31,
    "name_en": "Xue Ze",
    "name_ch": "薛澤",
    "domain_ch": "廣平",
    "domain_en": "Guangping",
    "type": "domain",
    "certainty": "N",
    "latitude": 36.951,
    "longitude": 115.022,
    "from": 161,
    "to": 125
  },
  {
    "number": 31,
    "name_en": "Xue Ze",
    "name_ch": "薛澤",
    "domain_ch": "平棘",
    "domain_en": "Pingji",
    "type": "domain",
    "certainty": "Y",
    "latitude": 37.723,
    "longitude": 114.81,
    "from": 161,
    "to": 125
  },
  {
    "number": 32,
    "name_en": "Xue Rang",
    "name_ch": "薛穰",
    "domain_ch": "平棘",
    "domain_en": "Pingji",
    "type": "domain",
    "certainty": "Y",
    "latitude": 37.723,
    "longitude": 114.81,
    "from": 125,
    "to": 122
  },
  {
    "number": 33,
    "name_en": "Chen Bi",
    "name_ch": "陳濞",
    "domain_ch": "博陽",
    "domain_en": "Boyang",
    "type": "domain",
    "certainty": "Y",
    "latitude": 33.59,
    "longitude": 114.704,
    "from": 201,
    "to": 161
  },
  {
    "number": 33,
    "name_en": "Chen Bi",
    "name_ch": "陳濞",
    "domain_ch": "碭",
    "domain_en": "Dang",
    "type": "origin",
    "certainty": "Y",
    "latitude": 34.293,
    "longitude": 116.248,
    "from": 201,
    "to": 161
  },
  {
    "number": 34,
    "name_en": "Chen Shi",
    "name_ch": "陳始",
    "domain_ch": "博陽",
    "domain_en": "Boyang",
    "type": "domain",
    "certainty": "Y",
    "latitude": 33.59,
    "longitude": 114.704,
    "from": 161,
    "to": 143
  },
  {
    "number": 35,
    "name_en": "Chen Ying",
    "name_ch": "陳嬰",
    "domain_ch": "堂邑",
    "domain_en": "Tangyi",
    "type": "domain",
    "certainty": "Y",
    "latitude": 32.338,
    "longitude": 118.86,
    "from": 201,
    "to": 183
  },
  {
    "number": 35,
    "name_en": "Chen Ying",
    "name_ch": "陳嬰",
    "domain_ch": "東陽",
    "domain_en": "Dongyang",
    "type": "origin",
    "certainty": "Y",
    "latitude": 33.006,
    "longitude": 118.826,
    "from": 201,
    "to": 183
  },
  {
    "number": 36,
    "name_en": "Chen Lu",
    "name_ch": "陳祿",
    "domain_ch": "堂邑",
    "domain_en": "Tangyi",
    "type": "domain",
    "certainty": "Y",
    "latitude": 33.338,
    "longitude": 118.86,
    "from": 183,
    "to": 177
  },
  {
    "number": 37,
    "name_en": "Chen Wu",
    "name_ch": "陳午",
    "domain_ch": "堂邑",
    "domain_en": "Tangyi",
    "type": "domain",
    "certainty": "Y",
    "latitude": 33.338,
    "longitude": 118.86,
    "from": 177,
    "to": 129
  },
  {
    "number": 39,
    "name_en": "Chen Ping",
    "name_ch": "陳平",
    "domain_ch": "戶牖",
    "domain_en": "Huyou",
    "type": "domain",
    "certainty": "Y",
    "latitude": 34.92,
    "longitude": 114.259,
    "from": 201,
    "to": 177
  },
  {
    "number": 39,
    "name_en": "Chen Ping",
    "name_ch": "陳平",
    "domain_ch": "曲逆",
    "domain_en": "Quni",
    "type": "domain",
    "certainty": "Y",
    "latitude": 38.807,
    "longitude": 115.221,
    "from": 201,
    "to": 177
  },
  {
    "number": 39,
    "name_en": "Chen Ping",
    "name_ch": "陳平",
    "domain_ch": "戶牖",
    "domain_en": "Huyou",
    "type": "origin",
    "certainty": "Y",
    "latitude": 34.92,
    "longitude": 114.259,
    "from": 201,
    "to": 177
  },
  {
    "number": 40,
    "name_en": "Chen Mai",
    "name_ch": "陳買",
    "domain_ch": "曲逆",
    "domain_en": "Quni",
    "type": "domain",
    "certainty": "Y",
    "latitude": 38.807,
    "longitude": 115.221,
    "from": 177,
    "to": 175
  },
  {
    "number": 41,
    "name_en": "Chen Kui",
    "name_ch": "陳悝",
    "domain_ch": "曲逆",
    "domain_en": "Quni",
    "type": "domain",
    "certainty": "Y",
    "latitude": 38.807,
    "longitude": 115.221,
    "from": 175,
    "to": 152
  },
  {
    "number": 42,
    "name_en": "Chen He",
    "name_ch": "陳何",
    "domain_ch": "曲逆",
    "domain_en": "Quni",
    "type": "domain",
    "certainty": "Y",
    "latitude": 38.807,
    "longitude": 115.221,
    "from": 152,
    "to": 130
  },
  {
    "number": 43,
    "name_en": "Zhang Liang",
    "name_ch": "張良",
    "domain_ch": "留",
    "domain_en": "Liu",
    "type": "domain",
    "certainty": "Y",
    "latitude": 34.621,
    "longitude": 117.201,
    "from": 201,
    "to": 185
  },
  {
    "number": 43,
    "name_en": "Zhang Liang",
    "name_ch": "張良",
    "domain_ch": "下邳",
    "domain_en": "Xiapi",
    "type": "origin",
    "certainty": "Y",
    "latitude": 34.326,
    "longitude": 117.995,
    "from": 201,
    "to": 185
  },
  {
    "number": 44,
    "name_en": "Zhang Buyi",
    "name_ch": "張不疑",
    "domain_ch": "留",
    "domain_en": "Liu",
    "type": "domain",
    "certainty": "Y",
    "latitude": 34.621,
    "longitude": 117.201,
    "from": 185,
    "to": 175
  },
  {
    "number": 45,
    "name_en": "Liu Chan",
    "name_ch": "劉纏",
    "domain_ch": "射陽",
    "domain_en": "Sheyang",
    "type": "domain",
    "certainty": "Y",
    "latitude": 33.312,
    "longitude": 119.619,
    "from": 201,
    "to": 192
  },
  {
    "number": 46,
    "name_en": "Xiao He",
    "name_ch": "蕭何",
    "domain_ch": "酇",
    "domain_en": "Zan",
    "type": "domain",
    "certainty": "Y",
    "latitude": 32.663,
    "longitude": 111.152,
    "from": 201,
    "to": 193
  },
  {
    "number": 46,
    "name_en": "Xiao He",
    "name_ch": "蕭何",
    "domain_ch": "長陵",
    "domain_en": "Changling",
    "type": "tomb",
    "certainty": "N",
    "latitude": 34.442,
    "longitude": 108.909,
    "from": 201,
    "to": 193
  },
  {
    "number": 46,
    "name_en": "Xiao He",
    "name_ch": "蕭何",
    "domain_ch": "沛",
    "domain_en": "Pei",
    "type": "origin",
    "certainty": "Y",
    "latitude": 34.731,
    "longitude": 116.94,
    "from": 201,
    "to": 193
  },
  {
    "number": 47,
    "name_en": "Xiao Lu",
    "name_ch": "蕭祿",
    "domain_ch": "酇",
    "domain_en": "Zan",
    "type": "domain",
    "certainty": "Y",
    "latitude": 32.663,
    "longitude": 111.152,
    "from": 193,
    "to": 187
  },
  {
    "number": 48,
    "name_en": "Xiao Tong",
    "name_ch": "蕭同",
    "domain_ch": "酇",
    "domain_en": "Zan",
    "type": "domain",
    "certainty": "Y",
    "latitude": 32.663,
    "longitude": 111.152,
    "from": 186,
    "to": 179
  },
  {
    "number": 49,
    "name_en": "Xiao Yan",
    "name_ch": "蕭延",
    "domain_ch": "酇",
    "domain_en": "Zan",
    "type": "domain",
    "certainty": "Y",
    "latitude": 32.663,
    "longitude": 111.152,
    "from": 186,
    "to": 178
  },
  {
    "number": 49,
    "name_en": "Xiao Yan",
    "name_ch": "蕭延",
    "domain_ch": "筑陽",
    "domain_en": "Zhuyang",
    "type": "domain",
    "certainty": "Y",
    "latitude": 32.265,
    "longitude": 111.681,
    "from": 186,
    "to": 178
  },
  {
    "number": 50,
    "name_en": "Xiao Yi",
    "name_ch": "蕭移",
    "domain_ch": "酇",
    "domain_en": "Zan",
    "type": "domain",
    "certainty": "Y",
    "latitude": 32.663,
    "longitude": 111.152,
    "from": 178,
    "to": 177
  }
]